[
  {
    "OBJECT_NAME": "STARLINK-11339 [DTC]",
    "OBJECT_ID": "2024-195E",
    "EPOCH": "2025-09-19T22:25:50.459520",
    "MEAN_MOTION": 15.69716454,
    "ECCENTRICITY": 9.577e-05,
    "INCLINATION": 53.1606,
    "RA_OF_ASC_NODE": 148.092,
    "ARG_OF_PERICENTER": 105.2087,
    "MEAN_ANOMALY": 254.9037,
    "EPHEMERIS_TYPE": 0,
    "CLASSIFICATION_TYPE": "U",
    "NORAD_CAT_ID": 61691,
    "ELEMENT_SET_NO": 999,
    "REV_AT_EPOCH": 5221,
    "BSTAR": -3.951511e-06,
    "MEAN_MOTION_DOT": -1.067e-05,
    "MEAN_MOTION_DDOT": 0,
    "TLE": {
      "line1": "1 61691U 24195E   25262.93461180 -.00001067  00000+0 -39515-5 0  9996",
      "line2": "2 61691  53.1606 148.0920 0000957 105.2087 254.9037 15.69716454 52212"
    }
  },
  {
    "OBJECT_NAME": "STARLINK-5324",
    "OBJECT_ID": "2023-021BB",
    "EPOCH": "2025-09-20T03:37:20.528256",
    "MEAN_MOTION": 14.98324373,
    "ECCENTRICITY": 0.00033004,
    "INCLINATION": 69.9988,
    "RA_OF_ASC_NODE": 214.4005,
    "ARG_OF_PERICENTER": 268.9312,
    "MEAN_ANOMALY": 91.1469,
    "EPHEMERIS_TYPE": 0,
    "CLASSIFICATION_TYPE": "U",
    "NORAD_CAT_ID": 55677,
    "ELEMENT_SET_NO": 999,
    "REV_AT_EPOCH": 14423,
    "BSTAR": -3.8834526e-05,
    "MEAN_MOTION_DOT": -5.56e-06,
    "MEAN_MOTION_DDOT": 0,
    "TLE": {
      "line1": "1 55677U 23021BB  25263.15093204 -.00000556  00000+0 -38835-4 0  9998",
      "line2": "2 55677  69.9988 214.4005 0003300 268.9312  91.1469 14.98324373144232"
    }
  },
  {
    "OBJECT_NAME": "HULIANWANG DIGUI 8E",
    "OBJECT_ID": "2025-174E",
    "EPOCH": "2025-09-20T06:54:46.764000",
    "MEAN_MOTION": 13.24418666,
    "ECCENTRICITY": 0.00016169,
    "INCLINATION": 86.4984,
    "RA_OF_ASC_NODE": 343.1607,
    "ARG_OF_PERICENTER": 91.1804,
    "MEAN_ANOMALY": 268.9515,
    "EPHEMERIS_TYPE": 0,
    "CLASSIFICATION_TYPE": "U",
    "NORAD_CAT_ID": 65168,
    "ELEMENT_SET_NO": 999,
    "REV_AT_EPOCH": 506,
    "BSTAR": 9.1213633e-05,
    "MEAN_MOTION_DOT": 5.4e-07,
    "MEAN_MOTION_DDOT": 0,
    "TLE": {
      "line1": "1 65168U 25174E   25263.28804125  .00000054  00000+0  91214-4 0  9992",
      "line2": "2 65168  86.4984 343.1607 0001616  91.1804 268.9515 13.24418666  5066"
    }
  },
  {
    "OBJECT_NAME": "STARLINK-31568",
    "OBJECT_ID": "2024-064Q",
    "EPOCH": "2025-09-19T04:17:11.360544",
    "MEAN_MOTION": 15.27591242,
    "ECCENTRICITY": 0.0001758,
    "INCLINATION": 43.0044,
    "RA_OF_ASC_NODE": 304.928,
    "ARG_OF_PERICENTER": 281.3046,
    "MEAN_ANOMALY": 78.7608,
    "EPHEMERIS_TYPE": 0,
    "CLASSIFICATION_TYPE": "U",
    "NORAD_CAT_ID": 59412,
    "ELEMENT_SET_NO": 999,
    "REV_AT_EPOCH": 8299,
    "BSTAR": 0.00034499031,
    "MEAN_MOTION_DOT": 9.246e-05,
    "MEAN_MOTION_DDOT": 0,
    "TLE": {
      "line1": "1 59412U 24064Q   25262.17860371  .00009246  00000+0  34499-3 0  9999",
      "line2": "2 59412  43.0044 304.9280 0001758 281.3046  78.7608 15.27591242 82991"
    }
  },
  {
    "OBJECT_NAME": "COSMOS 2559 [GLONASS-K]",
    "OBJECT_ID": "2022-130A",
    "EPOCH": "2025-09-19T03:56:55.473216",
    "MEAN_MOTION": 2.13101627,
    "ECCENTRICITY": 0.00131402,
    "INCLINATION": 64.4269,
    "RA_OF_ASC_NODE": 324.1186,
    "ARG_OF_PERICENTER": 188.2108,
    "MEAN_ANOMALY": 171.8379,
    "EPHEMERIS_TYPE": 0,
    "CLASSIFICATION_TYPE": "U",
    "NORAD_CAT_ID": 54031,
    "ELEMENT_SET_NO": 999,
    "REV_AT_EPOCH": 2291,
    "BSTAR": 0,
    "MEAN_MOTION_DOT": -5.4e-07,
    "MEAN_MOTION_DDOT": 0,
    "TLE": {
      "line1": "1 54031U 22130A   25262.16453094 -.00000054  00000+0  00000+0 0  9998",
      "line2": "2 54031  64.4269 324.1186 0013140 188.2108 171.8379  2.13101627 22911"
    }
  },
  {
    "OBJECT_NAME": "STARLINK-2542",
    "OBJECT_ID": "2021-036S",
    "EPOCH": "2025-09-20T00:03:10.165536",
    "MEAN_MOTION": 15.0639719,
    "ECCENTRICITY": 0.0001644,
    "INCLINATION": 53.0532,
    "RA_OF_ASC_NODE": 128.0301,
    "ARG_OF_PERICENTER": 84.3643,
    "MEAN_ANOMALY": 275.7533,
    "EPHEMERIS_TYPE": 0,
    "CLASSIFICATION_TYPE": "U",
    "NORAD_CAT_ID": 48292,
    "ELEMENT_SET_NO": 999,
    "REV_AT_EPOCH": 24258,
    "BSTAR": -0.00013335527,
    "MEAN_MOTION_DOT": -2.267e-05,
    "MEAN_MOTION_DDOT": 0,
    "TLE": {
      "line1": "1 48292U 21036S   25263.00220099 -.00002267  00000+0 -13336-3 0  9994",
      "line2": "2 48292  53.0532 128.0301 0001644  84.3643 275.7533 15.06397190242587"
    }
  },
  {
    "OBJECT_NAME": "STARLINK-34747",
    "OBJECT_ID": "2025-158R",
    "EPOCH": "2025-09-19T21:06:18.209088",
    "MEAN_MOTION": 15.06467759,
    "ECCENTRICITY": 0.0002893,
    "INCLINATION": 97.605,
    "RA_OF_ASC_NODE": 125.7147,
    "ARG_OF_PERICENTER": 80.1503,
    "MEAN_ANOMALY": 280.0051,
    "EPHEMERIS_TYPE": 0,
    "CLASSIFICATION_TYPE": "U",
    "NORAD_CAT_ID": 64947,
    "ELEMENT_SET_NO": 999,
    "REV_AT_EPOCH": 965,
    "BSTAR": 0.00024821144,
    "MEAN_MOTION_DOT": 3.602e-05,
    "MEAN_MOTION_DDOT": 0,
    "TLE": {
      "line1": "1 64947U 25158R   25262.87937742  .00003602  00000+0  24821-3 0  9995",
      "line2": "2 64947  97.6050 125.7147 0002893  80.1503 280.0051 15.06467759  9651"
    }
  },
  {
    "OBJECT_NAME": "CONNECTA IOT-7",
    "OBJECT_ID": "2025-009DL",
    "EPOCH": "2025-09-20T03:44:07.082592",
    "MEAN_MOTION": 14.93253147,
    "ECCENTRICITY": 0.00021549,
    "INCLINATION": 97.7328,
    "RA_OF_ASC_NODE": 341.6803,
    "ARG_OF_PERICENTER": 55.6534,
    "MEAN_ANOMALY": 304.489,
    "EPHEMERIS_TYPE": 0,
    "CLASSIFICATION_TYPE": "U",
    "NORAD_CAT_ID": 62715,
    "ELEMENT_SET_NO": 999,
    "REV_AT_EPOCH": 3703,
    "BSTAR": 0.00014567015,
    "MEAN_MOTION_DOT": 1.468e-05,
    "MEAN_MOTION_DDOT": 0,
    "TLE": {
      "line1": "1 62715U 25009DL  25263.15563753  .00001468  00000+0  14567-3 0  9994",
      "line2": "2 62715  97.7328 341.6803 0002154  55.6534 304.4890 14.93253147 37034"
    }
  },
  {
    "OBJECT_NAME": "2024-105A",
    "OBJECT_ID": "2024-105A",
    "EPOCH": "2025-09-20T07:42:39.260736",
    "MEAN_MOTION": 15.14640683,
    "ECCENTRICITY": 0.00156133,
    "INCLINATION": 97.5971,
    "RA_OF_ASC_NODE": 273.5804,
    "ARG_OF_PERICENTER": 82.9992,
    "MEAN_ANOMALY": 277.3015,
    "EPHEMERIS_TYPE": 0,
    "CLASSIFICATION_TYPE": "U",
    "NORAD_CAT_ID": 59917,
    "ELEMENT_SET_NO": 999,
    "REV_AT_EPOCH": 7214,
    "BSTAR": 0.00022190039,
    "MEAN_MOTION_DOT": 4.045e-05,
    "MEAN_MOTION_DDOT": 0,
    "TLE": {
      "line1": "1 59917U 24105A   25263.32128774  .00004045  00000+0  22190-3 0  9994",
      "line2": "2 59917  97.5971 273.5804 0015613  82.9992 277.3015 15.14640683 72142"
    }
  },
  {
    "OBJECT_NAME": "STARLINK-32208",
    "OBJECT_ID": "2024-150R",
    "EPOCH": "2025-09-19T17:52:28.329312",
    "MEAN_MOTION": 15.30195326,
    "ECCENTRICITY": 0.00011548,
    "INCLINATION": 53.1612,
    "RA_OF_ASC_NODE": 21.4277,
    "ARG_OF_PERICENTER": 85.7708,
    "MEAN_ANOMALY": 274.3425,
    "EPHEMERIS_TYPE": 0,
    "CLASSIFICATION_TYPE": "U",
    "NORAD_CAT_ID": 60598,
    "ELEMENT_SET_NO": 999,
    "REV_AT_EPOCH": 6186,
    "BSTAR": 3.1903207e-05,
    "MEAN_MOTION_DOT": 5.86e-06,
    "MEAN_MOTION_DDOT": 0,
    "TLE": {
      "line1": "1 60598U 24150R   25262.74477233  .00000586  00000+0  31903-4 0  9992",
      "line2": "2 60598  53.1612  21.4277 0001154  85.7708 274.3425 15.30195326 61860"
    }
  },
  {
    "OBJECT_NAME": "FGRST (GLAST)",
    "OBJECT_ID": "2008-029A",
    "EPOCH": "2025-09-20T03:43:20.670240",
    "MEAN_MOTION": 15.21726357,
    "ECCENTRICITY": 0.00086141,
    "INCLINATION": 25.5821,
    "RA_OF_ASC_NODE": 276.6726,
    "ARG_OF_PERICENTER": 27.3708,
    "MEAN_ANOMALY": 332.7283,
    "EPHEMERIS_TYPE": 0,
    "CLASSIFICATION_TYPE": "U",
    "NORAD_CAT_ID": 33053,
    "ELEMENT_SET_NO": 999,
    "REV_AT_EPOCH": 95462,
    "BSTAR": 0.00014978193,
    "MEAN_MOTION_DOT": 3.822e-05,
    "MEAN_MOTION_DDOT": 0,
    "TLE": {
      "line1": "1 33053U 08029A   25263.15510035  .00003822  00000+0  14978-3 0  9997",
      "line2": "2 33053  25.5821 276.6726 0008614  27.3708 332.7283 15.21726357954624"
    }
  },
  {
    "OBJECT_NAME": "COSMOS 2485 [GLONASS-M]",
    "OBJECT_ID": "2013-019A",
    "EPOCH": "2025-09-20T02:04:37.946784",
    "MEAN_MOTION": 2.13104514,
    "ECCENTRICITY": 0.00225541,
    "INCLINATION": 65.2685,
    "RA_OF_ASC_NODE": 82.679,
    "ARG_OF_PERICENTER": 226.613,
    "MEAN_ANOMALY": 133.2487,
    "EPHEMERIS_TYPE": 0,
    "CLASSIFICATION_TYPE": "U",
    "NORAD_CAT_ID": 39155,
    "ELEMENT_SET_NO": 999,
    "REV_AT_EPOCH": 9652,
    "BSTAR": 0,
    "MEAN_MOTION_DOT": 3.9e-07,
    "MEAN_MOTION_DDOT": 0,
    "TLE": {
      "line1": "1 39155U 13019A   25263.08655031  .00000039  00000+0  00000+0 0  9993",
      "line2": "2 39155  65.2685  82.6790 0022554 226.6130 133.2487  2.13104514 96528"
    }
  },
  {
    "OBJECT_NAME": "SITRO-AIS 26",
    "OBJECT_ID": "2024-039S",
    "EPOCH": "2025-09-20T06:39:23.403744",
    "MEAN_MOTION": 14.89861902,
    "ECCENTRICITY": 0.01534682,
    "INCLINATION": 95.386,
    "RA_OF_ASC_NODE": 49.914,
    "ARG_OF_PERICENTER": 189.6288,
    "MEAN_ANOMALY": 170.1987,
    "EPHEMERIS_TYPE": 0,
    "CLASSIFICATION_TYPE": "U",
    "NORAD_CAT_ID": 59067,
    "ELEMENT_SET_NO": 999,
    "REV_AT_EPOCH": 8447,
    "BSTAR": 0.00071774872,
    "MEAN_MOTION_DOT": 8.593e-05,
    "MEAN_MOTION_DDOT": 0,
    "TLE": {
      "line1": "1 59067U 24039S   25263.27735421  .00008593  00000+0  71775-3 0  9998",
      "line2": "2 59067  95.3860  49.9140 0153468 189.6288 170.1987 14.89861902 84470"
    }
  }
]